IRIDIUM 26 [-]          
1 24903U 97043A   23288.59620009  .00000864  00000+0  29058-3 0  9999
2 24903  86.4020   6.7947 0002027  88.4240 271.7189 14.36041765369088
IRIDIUM 22 [-]          
1 24907U 97043E   23288.60285150  .00000860  00000+0  29575-3 0  9999
2 24907  86.4025   9.8319 0002203  92.3133 267.8315 14.34949293369184
DUMMY MASS 1 [-]        
1 24925U 97048A   23288.61547057  .00001113  00000+0  12457-3 0  9995
2 24925  86.3348  57.3967 0008285 135.4176 224.7716 14.85875318414438
IRIDIUM 29 [-]          
1 24944U 97051A   23288.61380326  .00000739  00000+0  25083-3 0  9996
2 24944  86.3994  39.7965 0002347  92.0324 268.1142 14.35406619365657
IRIDIUM 33 [-]          
1 24946U 97051C   23288.55744394  .00000727  00000+0  25284-3 0  9990
2 24946  86.3911  39.0960 0005795 270.4396  89.6135 14.34144790365204
IRIDIUM 28 [-]          
1 24948U 97051E   23288.36134841  .00001065  00000+0  35755-3 0  9991
2 24948  86.4003  37.7697 0001709  88.1940 271.9453 14.36341293366132
